{
  "type": "FeatureCollection",
  "features": [
    {
      "type": "Feature",
      "properties": {
        "norad_id": 66575,
        "name": "STARLINK-35810",
        "group": "last-30-days",
        "lat": 6.356797012819531,
        "lon": 45.26836931089773,
        "alt_km": 456.6626455382193,
        "timestamp": "2025-12-26T21:25:51.731508+00:00",
        "meta_object_name": "STARLINK-35810",
        "meta_object_id": "2025-268U",
        "meta_epoch": "2025-12-26T14:00:04.000032",
        "meta_mean_motion": 15.37362069,
        "meta_eccentricity": 0.00015688,
        "meta_inclination": 43.0012,
        "meta_ra_of_asc_node": 40.176,
        "meta_arg_of_pericenter": 287.131,
        "meta_mean_anomaly": 167.6174,
        "meta_ephemeris_type": 0,
        "meta_classification_type": "U",
        "meta_norad_cat_id": 66575,
        "meta_element_set_no": 999,
        "meta_rev_at_epoch": 601,
        "meta_bstar": -0.058259036,
        "meta_mean_motion_dot": -0.01946772,
        "meta_mean_motion_ddot": 0,
        "tle_line1": "1 66575U 25268U   25360.58337963 -.01946772  00000+0 -58259-1 0  9999",
        "tle_line2": "2 66575  43.0012  40.1760 0001568 287.1310 167.6174 15.37362069  6012"
      },
      "geometry": {
        "type": "Point",
        "coordinates": [
          45.26836931089773,
          6.356797012819531
        ]
      }
    },
    {
      "type": "Feature",
      "properties": {
        "norad_id": 66576,
        "name": "STARLINK-35814",
        "group": "last-30-days",
        "lat": 16.527005185687937,
        "lon": 56.93209915812268,
        "alt_km": 452.895170229167,
        "timestamp": "2025-12-26T21:25:51.731521+00:00",
        "meta_object_name": "STARLINK-35814",
        "meta_object_id": "2025-268V",
        "meta_epoch": "2025-12-26T14:00:04.000032",
        "meta_mean_motion": 15.38198202,
        "meta_eccentricity": 0.00014703,
        "meta_inclination": 43.0012,
        "meta_ra_of_asc_node": 40.141,
        "meta_arg_of_pericenter": 290.5842,
        "meta_mean_anomaly": 178.5365,
        "meta_ephemeris_type": 0,
        "meta_classification_type": "U",
        "meta_norad_cat_id": 66576,
        "meta_element_set_no": 999,
        "meta_rev_at_epoch": 601,
        "meta_bstar": -0.056609232,
        "meta_mean_motion_dot": -0.01944535,
        "meta_mean_motion_ddot": 0,
        "tle_line1": "1 66576U 25268V   25360.58337963 -.01944535  00000+0 -56609-1 0  9992",
        "tle_line2": "2 66576  43.0012  40.1410 0001470 290.5842 178.5365 15.38198202  6015"
      },
      "geometry": {
        "type": "Point",
        "coordinates": [
          56.93209915812268,
          16.527005185687937
        ]
      }
    },
    {
      "type": "Feature",
      "properties": {
        "norad_id": 66577,
        "name": "STARLINK-35815",
        "group": "last-30-days",
        "lat": 30.690062623712297,
        "lon": 77.86896336699269,
        "alt_km": 446.7884604053006,
        "timestamp": "2025-12-26T21:25:51.731532+00:00",
        "meta_object_name": "STARLINK-35815",
        "meta_object_id": "2025-268W",
        "meta_epoch": "2025-12-26T14:00:04.000032",
        "meta_mean_motion": 15.39655492,
        "meta_eccentricity": 0.00015049,
        "meta_inclination": 43.0008,
        "meta_ra_of_asc_node": 40.0871,
        "meta_arg_of_pericenter": 291.5787,
        "meta_mean_anomaly": 199.7117,
        "meta_ephemeris_type": 0,
        "meta_classification_type": "U",
        "meta_norad_cat_id": 66577,
        "meta_element_set_no": 999,
        "meta_rev_at_epoch": 607,
        "meta_bstar": -0.054470999,
        "meta_mean_motion_dot": -0.01961543,
        "meta_mean_motion_ddot": 0,
        "tle_line1": "1 66577U 25268W   25360.58337963 -.01961543  00000+0 -54471-1 0  9996",
        "tle_line2": "2 66577  43.0008  40.0871 0001504 291.5787 199.7117 15.39655492  6074"
      },
      "geometry": {
        "type": "Point",
        "coordinates": [
          77.86896336699269,
          30.690062623712297
        ]
      }
    },
    {
      "type": "Feature",
      "properties": {
        "norad_id": 66578,
        "name": "STARLINK-35743",
        "group": "last-30-days",
        "lat": 37.114487504182435,
        "lon": 92.5637760852258,
        "alt_km": 443.31742709981063,
        "timestamp": "2025-12-26T21:25:51.731543+00:00",
        "meta_object_name": "STARLINK-35743",
        "meta_object_id": "2025-268X",
        "meta_epoch": "2025-12-26T14:00:04.000032",
        "meta_mean_motion": 15.4043205,
        "meta_eccentricity": 0.00010682,
        "meta_inclination": 43.0011,
        "meta_ra_of_asc_node": 40.0542,
        "meta_arg_of_pericenter": 300.2741,
        "meta_mean_anomaly": 203.9128,
        "meta_ephemeris_type": 0,
        "meta_classification_type": "U",
        "meta_norad_cat_id": 66578,
        "meta_element_set_no": 999,
        "meta_rev_at_epoch": 590,
        "meta_bstar": -0.052195714,
        "meta_mean_motion_dot": -0.01932146,
        "meta_mean_motion_ddot": 0,
        "tle_line1": "1 66578U 25268X   25360.58337963 -.01932146  00000+0 -52196-1 0  9996",
        "tle_line2": "2 66578  43.0011  40.0542 0001068 300.2741 203.9128 15.40432050  5903"
      },
      "geometry": {
        "type": "Point",
        "coordinates": [
          92.5637760852258,
          37.114487504182435
        ]
      }
    },
    {
      "type": "Feature",
      "properties": {
        "norad_id": 66579,
        "name": "STARLINK-35868",
        "group": "last-30-days",
        "lat": 41.29820898364525,
        "lon": 108.74844963231541,
        "alt_km": 440.31157098669064,
        "timestamp": "2025-12-26T21:25:51.731556+00:00",
        "meta_object_name": "STARLINK-35868",
        "meta_object_id": "2025-268Y",
        "meta_epoch": "2025-12-26T14:00:04.000032",
        "meta_mean_motion": 15.41345291,
        "meta_eccentricity": 0.000119,
        "meta_inclination": 43.0005,
        "meta_ra_of_asc_node": 40.0242,
        "meta_arg_of_pericenter": 302.0079,
        "meta_mean_anomaly": 214.3896,
        "meta_ephemeris_type": 0,
        "meta_classification_type": "U",
        "meta_norad_cat_id": 66579,
        "meta_element_set_no": 999,
        "meta_rev_at_epoch": 595,
        "meta_bstar": -0.052593343,
        "meta_mean_motion_dot": -0.01999297,
        "meta_mean_motion_ddot": 0,
        "tle_line1": "1 66579U 25268Y   25360.58337963 -.01999297  00000+0 -52593-1 0  9998",
        "tle_line2": "2 66579  43.0005  40.0242 0001190 302.0079 214.3896 15.41345291  5958"
      },
      "geometry": {
        "type": "Point",
        "coordinates": [
          108.74844963231541,
          41.29820898364525
        ]
      }
    },
    {
      "type": "Feature",
      "properties": {
        "norad_id": 66580,
        "name": "STARLINK-35872",
        "group": "last-30-days",
        "lat": 42.95186438318956,
        "lon": 125.68036355484163,
        "alt_km": 437.69711059586007,
        "timestamp": "2025-12-26T21:25:51.731567+00:00",
        "meta_object_name": "STARLINK-35872",
        "meta_object_id": "2025-268Z",
        "meta_epoch": "2025-12-26T14:00:04.000032",
        "meta_mean_motion": 15.42190101,
        "meta_eccentricity": 0.00010664,
        "meta_inclination": 43,
        "meta_ra_of_asc_node": 39.9967,
        "meta_arg_of_pericenter": 298.4933,
        "meta_mean_anomaly": 229.6164,
        "meta_ephemeris_type": 0,
        "meta_classification_type": "U",
        "meta_norad_cat_id": 66580,
        "meta_element_set_no": 999,
        "meta_rev_at_epoch": 607,
        "meta_bstar": -0.051374664,
        "meta_mean_motion_dot": -0.02008288,
        "meta_mean_motion_ddot": 0,
        "tle_line1": "1 66580U 25268Z   25360.58337963 -.02008288  00000+0 -51375-1 0  9999",
        "tle_line2": "2 66580  43.0000  39.9967 0001066 298.4933 229.6164 15.42190101  6075"
      },
      "geometry": {
        "type": "Point",
        "coordinates": [
          125.68036355484163,
          42.95186438318956
        ]
      }
    },
    {
      "type": "Feature",
      "properties": {
        "norad_id": 66581,
        "name": "STARLINK-35744",
        "group": "last-30-days",
        "lat": 42.13403619889232,
        "lon": 142.0663216309595,
        "alt_km": 435.458277307539,
        "timestamp": "2025-12-26T21:25:51.731578+00:00",
        "meta_object_name": "STARLINK-35744",
        "meta_object_id": "2025-268AA",
        "meta_epoch": "2025-12-26T14:00:04.000032",
        "meta_mean_motion": 15.43024195,
        "meta_eccentricity": 9.78e-05,
        "meta_inclination": 43.001,
        "meta_ra_of_asc_node": 39.9684,
        "meta_arg_of_pericenter": 293.0225,
        "meta_mean_anomaly": 246.2474,
        "meta_ephemeris_type": 0,
        "meta_classification_type": "U",
        "meta_norad_cat_id": 66581,
        "meta_element_set_no": 999,
        "meta_rev_at_epoch": 601,
        "meta_bstar": -0.049866775,
        "meta_mean_motion_dot": -0.02005609,
        "meta_mean_motion_ddot": 0,
        "tle_line1": "1 66581U 25268AA  25360.58337963 -.02005609  00000+0 -49867-1 0  9997",
        "tle_line2": "2 66581  43.0010  39.9684 0000978 293.0225 246.2474 15.43024195  6012"
      },
      "geometry": {
        "type": "Point",
        "coordinates": [
          142.0663216309595,
          42.13403619889232
        ]
      }
    }
  ]
}